{"type": "FeatureCollection", "features": [ {"type": "Feature", "properties": {"norad_id": 34572, "name": "COSMOS 2251 DEB", "group": "cosmos-2251-debris", "lat": 5.848300786546157, "lon": 91.1080338588171, "alt_km": 765.84607044108, "timestamp": "2025-12-26T14:28:48.097745+00:00", "meta": {"OBJECT_NAME": "COSMOS 2251 DEB", "OBJECT_ID": "1993-036VJ", "EPOCH": "2025-12-24T06:18:12.267936", "MEAN_MOTION": 14.50228885, "ECCENTRICITY": 0.00614008, "INCLINATION": 74.0107, "RA_OF_ASC_NODE": 93.8275, "ARG_OF_PERICENTER": 165.5586, "MEAN_ANOMALY": 225.3704, "EPHEMERIS_TYPE": 0, "CLASSIFICATION_TYPE": "U", "NORAD_CAT_ID": 34572, "ELEMENT_SET_NO": 999, "REV_AT_EPOCH": 87545, "BSTAR": 0.0025670587, "MEAN_MOTION_DOT": 0.00010221, "MEAN_MOTION_DDOT": 0}, "tle": {"line1": "1 34572U 93036VJ  25358.26264199  .00010221  00000+0  25671-2 0  9992", "line2": "2 34572  74.0107  93.8275 0061400 165.5586 225.3704 14.50228885875458"}}, "geometry": {"type": "Point", "coordinates": [91.1080338588171, 5.848300786546157]}}, {"type": "Feature", "properties": {"norad_id": 34574, "name": "COSMOS 2251 DEB", "group": "cosmos-2251-debris", "lat": -17.0442487530718, "lon": -158.70067001074221, "alt_km": 708.8985491342073, "timestamp": "2025-12-26T14:28:48.097755+00:00", "meta": {"OBJECT_NAME": "COSMOS 2251 DEB", "OBJECT_ID": "1993-036VL", "EPOCH": "2025-12-26T02:24:39.666240", "MEAN_MOTION": 14.70749003, "ECCENTRICITY": 0.00672982, "INCLINATION": 74.0692, "RA_OF_ASC_NODE": 17.2495, "ARG_OF_PERICENTER": 34.0411, "MEAN_ANOMALY": 21.9179, "EPHEMERIS_TYPE": 0, "CLASSIFICATION_TYPE": "U", "NORAD_CAT_ID": 34574, "ELEMENT_SET_NO": 999, "REV_AT_EPOCH": 88975, "BSTAR": 0.0010048726, "MEAN_MOTION_DOT": 6.322e-05, "MEAN_MOTION_DDOT": 0}, "tle": {"line1": "1 34574U 93036VL  25360.10045910  .00006322  00000+0  10049-2 0  9998", "line2": "2 34574  74.0692  17.2495 0067298  34.0411  21.9179 14.70749003889757"}}, "geometry": {"type": "Point", "coordinates": [-158.70067001074221, -17.0442487530718]}}, {"type": "Feature", "properties": {"norad_id": 34576, "name": "COSMOS 2251 DEB", "group": "cosmos-2251-debris", "lat": 48.38859065212469, "lon": -86.87218352241555, "alt_km": 706.0823703323258, "timestamp": "2025-12-26T14:28:48.097766+00:00", "meta": {"OBJECT_NAME": "COSMOS 2251 DEB", "OBJECT_ID": "1993-036VN", "EPOCH": "2025-12-26T07:25:33.818880", "MEAN_MOTION": 14.55520781, "ECCENTRICITY": 0.00083197, "INCLINATION": 74.0343, "RA_OF_ASC_NODE": 112.4879, "ARG_OF_PERICENTER": 251.3706, "MEAN_ANOMALY": 138.1425, "EPHEMERIS_TYPE": 0, "CLASSIFICATION_TYPE": "U", "NORAD_CAT_ID": 34576, "ELEMENT_SET_NO": 999, "REV_AT_EPOCH": 88664, "BSTAR": 0.00090299454, "MEAN_MOTION_DOT": 3.908e-05, "MEAN_MOTION_DDOT": 0}, "tle": {"line1": "1 34576U 93036VN  25360.30941920  .00003908  00000+0  90299-3 0  9991", "line2": "2 34576  74.0343 112.4879 0008319 251.3706 138.1425 14.55520781886649"}}, "geometry": {"type": "Point", "coordinates": [-86.87218352241555, 48.38859065212469]}}, {"type": "Feature", "properties": {"norad_id": 34579, "name": "COSMOS 2251 DEB", "group": "cosmos-2251-debris", "lat": -20.14693927122019, "lon": 24.10484040450785, "alt_km": 737.0162870466884, "timestamp": "2025-12-26T14:28:48.097776+00:00", "meta": {"OBJECT_NAME": "COSMOS 2251 DEB", "OBJECT_ID": "1993-036VR", "EPOCH": "2025-12-25T23:10:11.209728", "MEAN_MOTION": 14.45342439, "ECCENTRICITY": 0.0027488, "INCLINATION": 74.0512, "RA_OF_ASC_NODE": 199.27, "ARG_OF_PERICENTER": 265.93, "MEAN_ANOMALY": 217.2957, "EPHEMERIS_TYPE": 0, "CLASSIFICATION_TYPE": "U", "NORAD_CAT_ID": 34579, "ELEMENT_SET_NO": 999, "REV_AT_EPOCH": 88365, "BSTAR": 0.0003564, "MEAN_MOTION_DOT": 1.231e-05, "MEAN_MOTION_DDOT": 0}, "tle": {"line1": "1 34579U 93036VR  25359.96540752  .00001231  00000+0  35640-3 0  9998", "line2": "2 34579  74.0512 199.2700 0027488 265.9300 217.2957 14.45342439883653"}}, "geometry": {"type": "Point", "coordinates": [24.10484040450785, -20.14693927122019]}}, {"type": "Feature", "properties": {"norad_id": 34582, "name": "COSMOS 2251 DEB", "group": "cosmos-2251-debris", "lat": 39.699398934792576, "lon": -99.64122501165357, "alt_km": 720.6595377773738, "timestamp": "2025-12-26T14:28:48.097786+00:00", "meta": {"OBJECT_NAME": "COSMOS 2251 DEB", "OBJECT_ID": "1993-036VU", "EPOCH": "2025-12-26T02:38:43.695744", "MEAN_MOTION": 14.43389109, "ECCENTRICITY": 0.0048557, "INCLINATION": 74.0188, "RA_OF_ASC_NODE": 247.512, "ARG_OF_PERICENTER": 354.7384, "MEAN_ANOMALY": 5.3255, "EPHEMERIS_TYPE": 0, "CLASSIFICATION_TYPE": "U", "NORAD_CAT_ID": 34582, "ELEMENT_SET_NO": 999, "REV_AT_EPOCH": 88140, "BSTAR": 0.00063170726, "MEAN_MOTION_DOT": 2.136e-05, "MEAN_MOTION_DDOT": 0}, "tle": {"line1": "1 34582U 93036VU  25360.11022796  .00002136  00000+0  63171-3 0  9999", "line2": "2 34582  74.0188 247.5120 0048557 354.7384   5.3255 14.43389109881409"}}, "geometry": {"type": "Point", "coordinates": [-99.64122501165357, 39.699398934792576]}}, {"type": "Feature", "properties": {"norad_id": 34588, "name": "COSMOS 2251 DEB", "group": "cosmos-2251-debris", "lat": 29.258277138632835, "lon": -108.20950064833295, "alt_km": 751.5462513791781, "timestamp": "2025-12-26T14:28:48.097796+00:00", "meta": {"OBJECT_NAME": "COSMOS 2251 DEB", "OBJECT_ID": "1993-036WA", "EPOCH": "2025-12-26T03:23:28.542048", "MEAN_MOTION": 14.42058675, "ECCENTRICITY": 0.00193043, "INCLINATION": 74.0423, "RA_OF_ASC_NODE": 243.4223, "ARG_OF_PERICENTER": 294.754, "MEAN_ANOMALY": 218.0475, "EPHEMERIS_TYPE": 0, "CLASSIFICATION_TYPE": "U", "NORAD_CAT_ID": 34588, "ELEMENT_SET_NO": 999, "REV_AT_EPOCH": 88143, "BSTAR": 0.00038207072, "MEAN_MOTION_DOT": 1.231e-05, "MEAN_MOTION_DDOT": 0}, "tle": {"line1": "1 34588U 93036WA  25360.14130257  .00001231  00000+0  38207-3 0  9997", "line2": "2 34588  74.0423 243.4223 0019304 294.7540 218.0475 14.42058675881431"}}, "geometry": {"type": "Point", "coordinates": [-108.20950064833295, 29.258277138632835]}}, {"type": "Feature", "properties": {"norad_id": 34589, "name": "COSMOS 2251 DEB", "group": "cosmos-2251-debris", "lat": -36.24638815710526, "lon": 20.205648001143505, "alt_km": 766.5890669108057, "timestamp": "2025-12-26T14:28:48.097807+00:00", "meta": {"OBJECT_NAME": "COSMOS 2251 DEB", "OBJECT_ID": "1993-036WB", "EPOCH": "2025-12-25T11:14:58.253856", "MEAN_MOTION": 13.86068868, "ECCENTRICITY": 0.0252572, "INCLINATION": 73.9253, "RA_OF_ASC_NODE": 34.3419, "ARG_OF_PERICENTER": 335.1465, "MEAN_ANOMALY": 88.1559, "EPHEMERIS_TYPE": 0, "CLASSIFICATION_TYPE": "U", "NORAD_CAT_ID": 34589, "ELEMENT_SET_NO": 999, "REV_AT_EPOCH": 84888, "BSTAR": 0.00047786, "MEAN_MOTION_DOT": 6.82e-06, "MEAN_MOTION_DDOT": 0}, "tle": {"line1": "1 34589U 93036WB  25359.46872979  .00000682  00000+0  47786-3 0  9996", "line2": "2 34589  73.9253  34.3419 0252572 335.1465  88.1559 13.86068868848880"}}, "geometry": {"type": "Point", "coordinates": [20.205648001143505, -36.24638815710526]}}, {"type": "Feature", "properties": {"norad_id": 34590, "name": "COSMOS 2251 DEB", "group": "cosmos-2251-debris", "lat": 40.94117961910042, "lon": 101.95568591739156, "alt_km": 693.5117458721325, "timestamp": "2025-12-26T14:28:48.097817+00:00", "meta": {"OBJECT_NAME": "COSMOS 2251 DEB", "OBJECT_ID": "1993-036WC", "EPOCH": "2025-12-25T21:36:51.910848", "MEAN_MOTION": 14.5484121, "ECCENTRICITY": 0.0068093, "INCLINATION": 74.0446, "RA_OF_ASC_NODE": 297.6543, "ARG_OF_PERICENTER": 63.4192, "MEAN_ANOMALY": 353.7708, "EPHEMERIS_TYPE": 0, "CLASSIFICATION_TYPE": "U", "NORAD_CAT_ID": 34590, "ELEMENT_SET_NO": 999, "REV_AT_EPOCH": 89312, "BSTAR": 0.00014464, "MEAN_MOTION_DOT": 6.1e-06, "MEAN_MOTION_DDOT": 0}, "tle": {"line1": "1 34590U 93036WC  25359.90060082  .00000610  00000+0  14464-3 0  9999", "line2": "2 34590  74.0446 297.6543 0068093  63.4192 353.7708 14.54841210893121"}}, "geometry": {"type": "Point", "coordinates": [101.95568591739156, 40.94117961910042]}}, {"type": "Feature", "properties": {"norad_id": 34609, "name": "COSMOS 2251 DEB", "group": "cosmos-2251-debris", "lat": 57.28354551643584, "lon": 108.41966809141017, "alt_km": 868.5939927637965, "timestamp": "2025-12-26T14:28:48.097828+00:00", "meta": {"OBJECT_NAME": "COSMOS 2251 DEB", "OBJECT_ID": "1993-036WE", "EPOCH": "2025-12-24T00:34:30.192384", "MEAN_MOTION": 14.2183063, "ECCENTRICITY": 0.01457677, "INCLINATION": 73.7329, "RA_OF_ASC_NODE": 86.098, "ARG_OF_PERICENTER": 303.8546, "MEAN_ANOMALY": 238.3232, "EPHEMERIS_TYPE": 0, "CLASSIFICATION_TYPE": "U", "NORAD_CAT_ID": 34609, "ELEMENT_SET_NO": 999, "REV_AT_EPOCH": 86792, "BSTAR": 0.00072342659, "MEAN_MOTION_DOT": 1.747e-05, "MEAN_MOTION_DDOT": 0}, "tle": {"line1": "1 34609U 93036WE  25358.02396056  .00001747  00000+0  72343-3 0  9997", "line2": "2 34609  73.7329  86.0980 0145767 303.8546 238.3232 14.21830630867928"}}, "geometry": {"type": "Point", "coordinates": [108.41966809141017, 57.28354551643584]}}, {"type": "Feature", "properties": {"norad_id": 34610, "name": "COSMOS 2251 DEB", "group": "cosmos-2251-debris", "lat": -28.981899901544317, "lon": 67.13993928290594, "alt_km": 993.3379129973137, "timestamp": "2025-12-26T14:28:48.097838+00:00", "meta": {"OBJECT_NAME": "COSMOS 2251 DEB", "OBJECT_ID": "1993-036WF", "EPOCH": "2025-12-25T23:49:53.205024", "MEAN_MOTION": 14.07144269, "ECCENTRICITY": 0.01809429, "INCLINATION": 74.0186, "RA_OF_ASC_NODE": 239.0767, "ARG_OF_PERICENTER": 6.6475, "MEAN_ANOMALY": 353.6998, "EPHEMERIS_TYPE": 0, "CLASSIFICATION_TYPE": "U", "NORAD_CAT_ID": 34610, "ELEMENT_SET_NO": 999, "REV_AT_EPOCH": 85746, "BSTAR": 0.0019166478, "MEAN_MOTION_DOT": 3.701e-05, "MEAN_MOTION_DDOT": 0}, "tle": {"line1": "1 34610U 93036WF  25359.99297691  .00003701  00000+0  19166-2 0  9996", "line2": "2 34610  74.0186 239.0767 0180942   6.6475 353.6998 14.07144269857469"}}, "geometry": {"type": "Point", "coordinates": [67.13993928290594, -28.981899901544317]}}]}